*******************************************************************************
 Revised: November 5, 2015          134340 Pluto                            999
 
 NOTE: Pre-computed solution PLU055/DE433; a fit to all available observations 
 including New Horizons spacecraft encounter tracking.

 PHYSICAL DATA (updated 2018-Aug-15; Mc= Charon mass, radius is IAU 2009):
  Mass x10^22 (kg)      = 1.307+-0.018    Volume, 10^10 km^3    = 0.697
  GM (planet) km^3/s^2  = 869.33907803    Density (R=1195 km)   = 1.86 g/cm^3
  GM 1-sigma, km^3/s^2  =   1.5           Surface gravity       = 0.611 m/s^2 
  Vol. mean radius (km) = 1188.3+-1.6     Mass ratio (Mc/Mp)    = 0.117
  Sidereal rot. period  = 153.29335198 h  Sid. rot. rat, rad/s  = 0.0000113856
  Mean solar day, h     = 153.2820        Mean orbit velocity   = 4.67 km/s
  Sidereal orbit period = 249.58932 yr    Escape speed, km/s    = 1.21            
                                 Perihelion  Aphelion    Mean
  Solar Constant (W/m^2)         1.56        0.56        0.88
  Maximum Planetary IR (W/m^2)   0.8         0.3         0.5
  Minimum Planetary IR (W/m^2)   0.8         0.3         0.5
*******************************************************************************
 

 

*******************************************************************************
Ephemeris / WWW_USER Thu Dec 26 16:00:20 2019 Pasadena, USA      / Horizons    
*******************************************************************************
Target body name: Pluto (999)                     {source: plu055l_merged}
Center body name: Sun (10)                        {source: plu055l_merged}
Center-site name: BODY CENTER
*******************************************************************************
Start time      : A.D. 2019-Dec-26 00:00:00.0000 TDB
Stop  time      : A.D. 2020-Jan-25 00:00:00.0000 TDB
Step-size       : 1440 minutes
*******************************************************************************
Center geodetic : 0.00000000,0.00000000,0.0000000 {E-lon(deg),Lat(deg),Alt(km)}
Center cylindric: 0.00000000,0.00000000,0.0000000 {E-lon(deg),Dxy(km),Dz(km)}
Center radii    : 696000.0 x 696000.0 x 696000.0 k{Equator, meridian, pole}    
Keplerian GM    : 1.3271244091127838E+11 km^3/s^2
Output units    : KM-S, deg                                                    
Output type     : GEOMETRIC osculating elements
Output format   : 10
Reference frame : ICRF/J2000.0                                                 
Coordinate systm: Ecliptic and Mean Equinox of Reference Epoch                 
*******************************************************************************
            JDTDB,            Calendar Date (TDB),                     EC,                     QR,                     IN,                     OM,                      W,                     Tp,                      N,                     MA,                     TA,                      A,                     AD,                     PR,
**************************************************************************************************************************************************************************************************************************************************************************************************************************************************
$$SOE
2458862.500000000, A.D. 2020-Jan-14 00:00:00.0000,  2.501353778192374E-01,  4.455959786614066E+09,  1.687294179076324E+01,  1.102650242832034E+02,  1.150731378806538E+02, -9.409014211913826E+08,  4.556599450495952E-08,  4.287310898771516E+01,  6.730197879372352E+01,  5.942352332418627E+09,  7.428744878223187E+09,  7.900628613753107E+09,
2458863.500000000, A.D. 2020-Jan-15 00:00:00.0000,  2.541870878344756E-01,  4.477005014141283E+09,  1.696267346839365E+01,  1.102778002741188E+02,  1.168283450409672E+02, -9.179950705119655E+08,  4.487887138108175E-08,  4.119858269797356E+01,  6.553977462225041E+01,  6.002852647243608E+09,  7.528700280345934E+09,  8.021592097161215E+09,
2458864.500000000, A.D. 2020-Jan-16 00:00:00.0000,  2.574051340183252E-01,  4.476628757426558E+09,  1.717244648828679E+01,  1.103072158816870E+02,  1.171455955415233E+02, -9.119746198523266E+08,  4.459434034454899E-08,  4.066890658328535E+01,  6.519964467111910E+01,  6.028359422480884E+09,  7.580090087535210E+09,  8.072773298551657E+09,
2458865.500000000, A.D. 2020-Jan-17 00:00:00.0000,  2.568144308659456E-01,  4.455622765619105E+09,  1.731647589613882E+01,  1.103270516199386E+02,  1.157895978284251E+02, -9.276891806701775E+08,  4.496366792213135E-08,  4.171230825460795E+01,  6.654193495546895E+01,  5.995303125719614E+09,  7.534983485820123E+09,  8.006464255172701E+09,
2458866.500000000, A.D. 2020-Jan-18 00:00:00.0000,  2.531744534969820E-01,  4.431793687676100E+09,  1.726646205807704E+01,  1.103201780105851E+02,  1.139289440901418E+02, -9.514100989912345E+08,  4.566020921262989E-08,  4.344158416694869E+01,  6.841436901460807E+01,  5.934175268143684E+09,  7.436556848611269E+09,  7.884326554956341E+09,
2458867.500000000, A.D. 2020-Jan-19 00:00:00.0000,  2.496550719130161E-01,  4.426681196994237E+09,  1.706548480159914E+01,  1.102921200366443E+02,  1.132091412454962E+02, -9.624632215189338E+08,  4.606303072644818E-08,  4.433397294590294E+01,  6.916617979616215E+01,  5.899528378608662E+09,  7.372375560223086E+09,  7.815378066152679E+09,
2458868.500000000, A.D. 2020-Jan-20 00:00:00.0000,  2.492117186328567E-01,  4.445618756682205E+09,  1.689381510547177E+01,  1.102675917326739E+02,  1.143257670474910E+02, -9.505437468705369E+08,  4.580958471663694E-08,  4.354401429913538E+01,  6.807821262013626E+01,  5.921268175079908E+09,  7.396917593477612E+09,  7.858617410021110E+09,
2458869.500000000, A.D. 2020-Jan-21 00:00:00.0000,  2.524566094247965E-01,  4.470862539544177E+09,  1.690536917910421E+01,  1.102692671865611E+02,  1.162582253892321E+02, -9.263161208067888E+08,  4.512799971221328E-08,  4.180279363318729E+01,  6.614936777433263E+01,  5.980739841875980E+09,  7.490617144207784E+09,  7.977309038640391E+09,
2458870.500000000, A.D. 2020-Jan-22 00:00:00.0000,  2.564996680117886E-01,  4.479826687477728E+09,  1.708826379425337E+01,  1.102954679066910E+02,  1.172482421972481E+02, -9.120451893372980E+08,  4.462809841587068E-08,  4.070284246946636E+01,  6.513953020837411E+01,  6.025319014314519E+09,  7.570811341151310E+09,  8.066666803620217E+09,
2458871.500000000, A.D. 2020-Jan-23 00:00:00.0000,  2.575093272161181E-01,  4.465435622595618E+09,  1.727978196339113E+01,  1.103223804123988E+02,  1.164656580391837E+02, -9.201039814186078E+08,  4.475269623750534E-08,  4.117713398734622E+01,  6.590164255288946E+01,  6.014130259512877E+09,  7.562824896430135E+09,  8.044208064905354E+09,
2458872.500000000, A.D. 2020-Jan-24 00:00:00.0000,  2.547436050845918E-01,  4.439914786510798E+09,  1.731027881387344E+01,  1.103266169104912E+02,  1.146013806469063E+02, -9.431689376814137E+08,  4.539155548440510E-08,  4.281190516593331E+01,  6.776709943846197E+01,  5.957566841160429E+09,  7.475218895810061E+09,  7.930990602947789E+09,
2458873.500000000, A.D. 2020-Jan-25 00:00:00.0000,  2.507674370400784E-01,  4.425610365642794E+09,  1.715114541982672E+01,  1.103042686886172E+02,  1.132737254490019E+02, -9.613016148530586E+08,  4.597732011787705E-08,  4.419807207593120E+01,  6.912130376524325E+01,  5.906858009693222E+09,  7.388105653743650E+09,  7.829947440978049E+09,
